SPACEMOBILE-003         
1 61045U 24163A   26191.15284552  .00000447  00000+0  34676-4 0  9997
2 61045  52.9663 203.8314 0005319 179.8371 180.2626 15.20788598101262
SPACEMOBILE-005         
1 61046U 24163B   26191.46492691  .00003906  00000+0  18962-3 0  9999
2 61046  52.9790 202.3393 0008778 181.1701 178.9274 15.20764248101304
SPACEMOBILE-001         
1 61047U 24163C   26191.06904487  .00000518  00000+0  37895-4 0  9990
2 61047  52.9749 203.8741 0007553 178.7608 181.3406 15.20815495101249
SPACEMOBILE-002         
1 61048U 24163D   26191.38159234  .00012242  00000+0  56055-3 0  9993
2 61048  52.9822 202.4780 0006213 190.6571 169.4293 15.20876875101299
SPACEMOBILE-004         
1 61049U 24163E   26190.57554382 -.00014088  00000+0 -61665-3 0  9992
2 61049  52.9654 205.9666 0008113 207.5207 152.5359 15.20814564101179
SPACEMOBILE-001 DEB     
1 62369U 24163F   26191.36213669  .00007250  00000+0  21900-3 0  9995
2 62369  52.9915 170.2378 0005931 233.9859 126.0593 15.35327750 90063
SPACEMOBILE-002 DEB     
1 62370U 24163G   26191.30077546  .00016405  00000+0  36629-3 0  9999
2 62370  52.9402 154.9708 0004492 267.6458  92.4031 15.43693149101931
SPACEMOBILE-003 DEB     
1 62371U 24163H   26189.64170933  .00014206  00000+0  34383-3 0  9990
2 62371  52.9682 169.6526 0005675 212.5674 147.4980 15.41385961 95198
SPACEMOBILE-004 DEB     
1 62372U 24163J   26191.27873014  .00010988  00000+0  27468-3 0  9992
2 62372  52.9822 161.5022 0002842 241.7246 118.3470 15.40670437 98513
SPACEMOBILE-005 DEB     
1 62373U 24163K   26190.99132796  .00006434  00000+0  20018-3 0  9991
2 62373  52.9723 176.8636 0005888 210.3831 149.6829 15.34590181101621
SPACEMOBILE-006         
1 67232U 25309A   26191.47248612  .00000213  00000+0  25498-4 0  9999
2 67232  52.9937 224.9712 0010446 200.1439 159.9144 15.18647033 30136
SPACEMOBILE-008         
1 69589U 26139A   26190.99972059  .00000331  00000+0  35582-4 0  9999
2 69589  52.9940 158.9953 0004786  44.1815 315.9557 15.12797717  3438
SPACEMOBILE-009         
1 69590U 26139B   26190.34061313  .00000414  00000+0  40374-4 0  9999
2 69590  52.9929 161.9998 0005008  38.0005 322.1339 15.12690226  3335
SPACEMOBILE-010         
1 69591U 26139C   26190.60738348  .00000292  00000+0  33614-4 0  9991
2 69591  52.9935 160.8181 0004902  29.8087 330.3183 15.12521495  3389
